{
  "type": "FeatureCollection",
  "features": [
    {
      "type": "Feature",
      "properties": {
        "norad_id": 33765,
        "name": "COSMOS 2251 DEB",
        "group": "cosmos-2251-debris",
        "lat": -15.134710988507587,
        "lon": 171.05717157140188,
        "alt_km": 530.1567374341403,
        "timestamp": "2025-12-11T13:55:02.558602+00:00",
        "meta_object_name": "COSMOS 2251 DEB",
        "meta_object_id": "1993-036N",
        "meta_epoch": "2025-12-11T00:22:05.382912",
        "meta_mean_motion": 15.09816798,
        "meta_eccentricity": 0.00657675,
        "meta_inclination": 74.009,
        "meta_ra_of_asc_node": 176.6722,
        "meta_arg_of_pericenter": 269.1485,
        "meta_mean_anomaly": 247.2152,
        "meta_ephemeris_type": 0,
        "meta_classification_type": "U",
        "meta_norad_cat_id": 33765,
        "meta_element_set_no": 999,
        "meta_rev_at_epoch": 89592,
        "meta_bstar": 0.0027837282,
        "meta_mean_motion_dot": 0.00047638,
        "meta_mean_motion_ddot": 0,
        "tle_line1": "1 33765U 93036N   25345.01534008  .00047638  00000+0  27837-2 0  9991",
        "tle_line2": "2 33765  74.0090 176.6722 0065767 269.1485 247.2152 15.09816798895923"
      },
      "geometry": {
        "type": "Point",
        "coordinates": [
          171.05717157140188,
          -15.134710988507587
        ]
      }
    },
    {
      "type": "Feature",
      "properties": {
        "norad_id": 33766,
        "name": "COSMOS 2251 DEB",
        "group": "cosmos-2251-debris",
        "lat": 29.33627302970597,
        "lon": -52.080070147199635,
        "alt_km": 818.4249780786604,
        "timestamp": "2025-12-11T13:55:02.558613+00:00",
        "meta_object_name": "COSMOS 2251 DEB",
        "meta_object_id": "1993-036P",
        "meta_epoch": "2025-12-11T03:11:03.113952",
        "meta_mean_motion": 14.34926213,
        "meta_eccentricity": 0.00640667,
        "meta_inclination": 74.1857,
        "meta_ra_of_asc_node": 137.8972,
        "meta_arg_of_pericenter": 341.7313,
        "meta_mean_anomaly": 18.1538,
        "meta_ephemeris_type": 0,
        "meta_classification_type": "U",
        "meta_norad_cat_id": 33766,
        "meta_element_set_no": 999,
        "meta_rev_at_epoch": 87722,
        "meta_bstar": 0.00076914184,
        "meta_mean_motion_dot": 2.214e-05,
        "meta_mean_motion_ddot": 0,
        "tle_line1": "1 33766U 93036P   25345.13267493  .00002214  00000+0  76914-3 0  9998",
        "tle_line2": "2 33766  74.1857 137.8972 0064066 341.7313  18.1538 14.34926213877227"
      },
      "geometry": {
        "type": "Point",
        "coordinates": [
          -52.080070147199635,
          29.33627302970597
        ]
      }
    },
    {
      "type": "Feature",
      "properties": {
        "norad_id": 33768,
        "name": "COSMOS 2251 DEB",
        "group": "cosmos-2251-debris",
        "lat": 35.33154265813339,
        "lon": -126.57882178565174,
        "alt_km": 778.2230406533072,
        "timestamp": "2025-12-11T13:55:02.558624+00:00",
        "meta_object_name": "COSMOS 2251 DEB",
        "meta_object_id": "1993-036R",
        "meta_epoch": "2025-12-11T03:42:41.041152",
        "meta_mean_motion": 13.58452561,
        "meta_eccentricity": 0.03662468,
        "meta_inclination": 74.0684,
        "meta_ra_of_asc_node": 222.4258,
        "meta_arg_of_pericenter": 20.512,
        "meta_mean_anomaly": 96.4576,
        "meta_ephemeris_type": 0,
        "meta_classification_type": "U",
        "meta_norad_cat_id": 33768,
        "meta_element_set_no": 999,
        "meta_rev_at_epoch": 83274,
        "meta_bstar": 0.0004682604,
        "meta_mean_motion_dot": 5.08e-06,
        "meta_mean_motion_ddot": 0,
        "tle_line1": "1 33768U 93036R   25345.15464168  .00000508  00000+0  46826-3 0  9993",
        "tle_line2": "2 33768  74.0684 222.4258 0366246  20.5120  96.4576 13.58452561832741"
      },
      "geometry": {
        "type": "Point",
        "coordinates": [
          -126.57882178565174,
          35.33154265813339
        ]
      }
    },
    {
      "type": "Feature",
      "properties": {
        "norad_id": 33779,
        "name": "COSMOS 2251 DEB",
        "group": "cosmos-2251-debris",
        "lat": -16.43883871482676,
        "lon": 168.1303487501526,
        "alt_km": 673.1098056291066,
        "timestamp": "2025-12-11T13:55:02.558635+00:00",
        "meta_object_name": "COSMOS 2251 DEB",
        "meta_object_id": "1993-036U",
        "meta_epoch": "2025-12-09T23:29:45.646656",
        "meta_mean_motion": 14.70346506,
        "meta_eccentricity": 0.0017184,
        "meta_inclination": 74.0449,
        "meta_ra_of_asc_node": 176.0751,
        "meta_arg_of_pericenter": 209.9028,
        "meta_mean_anomaly": 302.4357,
        "meta_ephemeris_type": 0,
        "meta_classification_type": "U",
        "meta_norad_cat_id": 33779,
        "meta_element_set_no": 999,
        "meta_rev_at_epoch": 88487,
        "meta_bstar": 0.0024050725,
        "meta_mean_motion_dot": 0.00014571,
        "meta_mean_motion_ddot": 0,
        "tle_line1": "1 33779U 93036U   25343.97900054  .00014571  00000+0  24051-2 0  9992",
        "tle_line2": "2 33779  74.0449 176.0751 0017184 209.9028 302.4357 14.70346506884872"
      },
      "geometry": {
        "type": "Point",
        "coordinates": [
          168.1303487501526,
          -16.43883871482676
        ]
      }
    },
    {
      "type": "Feature",
      "properties": {
        "norad_id": 33782,
        "name": "COSMOS 2251 DEB",
        "group": "cosmos-2251-debris",
        "lat": -46.15929119937004,
        "lon": 117.03655443891007,
        "alt_km": 769.8894326144073,
        "timestamp": "2025-12-11T13:55:02.558646+00:00",
        "meta_object_name": "COSMOS 2251 DEB",
        "meta_object_id": "1993-036X",
        "meta_epoch": "2025-12-11T06:46:35.679360",
        "meta_mean_motion": 14.40442633,
        "meta_eccentricity": 0.0020704,
        "meta_inclination": 74.0338,
        "meta_ra_of_asc_node": 280.2419,
        "meta_arg_of_pericenter": 345.1294,
        "meta_mean_anomaly": 141.3488,
        "meta_ephemeris_type": 0,
        "meta_classification_type": "U",
        "meta_norad_cat_id": 33782,
        "meta_element_set_no": 999,
        "meta_rev_at_epoch": 88105,
        "meta_bstar": 0.00080032616,
        "meta_mean_motion_dot": 2.524e-05,
        "meta_mean_motion_ddot": 0,
        "tle_line1": "1 33782U 93036X   25345.28235740  .00002524  00000+0  80033-3 0  9993",
        "tle_line2": "2 33782  74.0338 280.2419 0020704 345.1294 141.3488 14.40442633881059"
      },
      "geometry": {
        "type": "Point",
        "coordinates": [
          117.03655443891007,
          -46.15929119937004
        ]
      }
    },
    {
      "type": "Feature",
      "properties": {
        "norad_id": 33785,
        "name": "COSMOS 2251 DEB",
        "group": "cosmos-2251-debris",
        "lat": -42.263916758731845,
        "lon": 46.95081967844818,
        "alt_km": 655.0837497546472,
        "timestamp": "2025-12-11T13:55:02.558656+00:00",
        "meta_object_name": "COSMOS 2251 DEB",
        "meta_object_id": "1993-036AA",
        "meta_epoch": "2025-12-11T07:52:52.993632",
        "meta_mean_motion": 14.70442075,
        "meta_eccentricity": 0.00221733,
        "meta_inclination": 73.8671,
        "meta_ra_of_asc_node": 62.6945,
        "meta_arg_of_pericenter": 2.5264,
        "meta_mean_anomaly": 62.5113,
        "meta_ephemeris_type": 0,
        "meta_classification_type": "U",
        "meta_norad_cat_id": 33785,
        "meta_element_set_no": 999,
        "meta_rev_at_epoch": 88486,
        "meta_bstar": 0.0040824464,
        "meta_mean_motion_dot": 0.00024886,
        "meta_mean_motion_ddot": 0,
        "tle_line1": "1 33785U 93036AA  25345.32839113  .00024886  00000+0  40824-2 0  9993",
        "tle_line2": "2 33785  73.8671  62.6945 0022173   2.5264  62.5113 14.70442075884862"
      },
      "geometry": {
        "type": "Point",
        "coordinates": [
          46.95081967844818,
          -42.263916758731845
        ]
      }
    },
    {
      "type": "Feature",
      "properties": {
        "norad_id": 33789,
        "name": "COSMOS 2251 DEB",
        "group": "cosmos-2251-debris",
        "lat": 63.20110250905684,
        "lon": -125.06944101392163,
        "alt_km": 932.7646755880514,
        "timestamp": "2025-12-11T13:55:02.558667+00:00",
        "meta_object_name": "COSMOS 2251 DEB",
        "meta_object_id": "1993-036AE",
        "meta_epoch": "2025-12-11T00:07:08.155200",
        "meta_mean_motion": 13.88789594,
        "meta_eccentricity": 0.02402596,
        "meta_inclination": 74.065,
        "meta_ra_of_asc_node": 90.3503,
        "meta_arg_of_pericenter": 206.3655,
        "meta_mean_anomaly": 274.8113,
        "meta_ephemeris_type": 0,
        "meta_classification_type": "U",
        "meta_norad_cat_id": 33789,
        "meta_element_set_no": 999,
        "meta_rev_at_epoch": 85071,
        "meta_bstar": 0.0012195124,
        "meta_mean_motion_dot": 1.83e-05,
        "meta_mean_motion_ddot": 0,
        "tle_line1": "1 33789U 93036AE  25345.00495550  .00001830  00000+0  12195-2 0  9999",
        "tle_line2": "2 33789  74.0650  90.3503 0240259 206.3655 274.8113 13.88789594850712"
      },
      "geometry": {
        "type": "Point",
        "coordinates": [
          -125.06944101392163,
          63.20110250905684
        ]
      }
    }
  ]
}